NORAD_CAT_ID,OBJECT_NAME,OBJECT_TYPE,EPOCH,MEAN_MOTION,ECCENTRICITY,INCLINATION,RA_OF_ASC_NODE,ARG_OF_PERICENTER,MEAN_ANOMALY,BSTAR,MEAN_MOTION_DOT,MEAN_MOTION_DDOT,TLE_LINE0,TLE_LINE1,TLE_LINE2,SEMIMAJOR_AXIS,PERIOD,APOGEE,PERIGEE,DECAYED
53397.0,STARLINK-4515,PAYLOAD,2024-01-25 05:15:00,15.08838479,0.0001597,53.2202,0.8612,111.2228,248.8935,4.7412e-05,4.67e-06,0.0,0 STARLINK-4515,1 53397U 22097K   24025.21875230  .00000467  00000-0  47412-4 0  9997,2 53397  53.2202   0.8612 0001597 111.2228 248.8935 15.08838479 81594,6917.885,95.438,540.855,538.645,0.0
53397.0,STARLINK-4515,PAYLOAD,2024-01-26 05:05:47,15.08841094,0.0001595,53.22,356.3997,111.4586,248.6576,0.00012848,1.757e-05,0.0,0 STARLINK-4515,1 53397U 22097K   24026.21235035  .00001757  00000-0  12848-3 0  9998,2 53397  53.2200 356.3997 0001595 111.4586 248.6576 15.08841094 81253,6917.877,95.437,540.845,538.639,0.0
53397.0,STARLINK-4515,PAYLOAD,2024-01-27 01:45:48,15.08836247,0.000162,53.2199,352.5335,113.8072,246.3091,7.4351e-05,8.95e-06,0.0,0 STARLINK-4515,1 53397U 22097K   24027.07347637  .00000895  00000-0  74351-4 0  9995,2 53397  53.2199 352.5335 0001620 113.8072 246.3091 15.08836247 81384,6917.892,95.438,540.878,538.636,0.0
53397.0,STARLINK-4515,PAYLOAD,2024-01-27 06:31:57,15.08844,0.0001666,53.2204,351.6414,108.7893,251.328,0.00013747,1.901e-05,0.0,0 STARLINK-4515,1 53397U 22097K   24027.27219127  .00001901  00000-0  13747-3 0  9999,2 53397  53.2204 351.6414 0001666 108.7893 251.3280 15.08844000 81419,6917.868,95.437,540.886,538.581,0.0
53397.0,STARLINK-4515,PAYLOAD,2024-01-28 06:22:44,15.0884299,0.0001666,53.2198,347.1773,116.3293,243.787,3.4953e-06,-2.32e-06,0.0,0 STARLINK-4515,1 53397U 22097K   24028.26579532 -.00000232  00000-0  34953-5 0  9999,2 53397  53.2198 347.1773 0001666 116.3293 243.7870 15.08842990 81560,6917.871,95.437,540.889,538.584,0.0
53397.0,STARLINK-4515,PAYLOAD,2024-01-29 06:13:31,15.08849376,0.0001717,53.2206,342.7119,81.4666,278.6521,8.0269e-05,9.9e-06,0.0,0 STARLINK-4515,1 53397U 22097K   24029.25939198  .00000990  00000-0  80269-4 0  9997,2 53397  53.2206 342.7119 0001717  81.4666 278.6521 15.08849376 82205,6917.852,95.437,540.905,538.529,0.0
53397.0,STARLINK-4515,PAYLOAD,2024-01-30 02:53:32,15.08843739,0.0001814,53.2207,338.8448,73.7125,286.4066,8.5278e-05,1.069e-05,0.0,0 STARLINK-4515,1 53397U 22097K   24030.12051567  .00001069  00000-0  85278-4 0  9993,2 53397  53.2207 338.8448 0001814  73.7125 286.4066 15.08843739 81846,6917.869,95.437,540.989,538.479,0.0
53397.0,STARLINK-4515,PAYLOAD,2024-01-30 20:22:47,15.08849758,0.0001697,53.2192,335.5865,81.0562,279.0622,5.3813e-06,-2.02e-06,0.0,0 STARLINK-4515,1 53397U 22097K   24030.84915529 -.00000202  00000-0  53813-5 0  9999,2 53397  53.2192 335.5865 0001697  81.0562 279.0622 15.08849758 82442,6917.851,95.437,540.89,538.542,0.0
53397.0,STARLINK-4515,PAYLOAD,2024-01-31 01:08:56,15.08850796,0.0001843,53.2194,334.6907,128.0935,232.0224,-4.2273e-05,-9.61e-06,0.0,0 STARLINK-4515,1 53397U 22097K   24031.04787181 -.00000961  00000-0 -42273-4 0  9993,2 53397  53.2194 334.6907 0001843 128.0935 232.0224 15.08850796 82474,6917.847,95.437,540.987,538.437,0.0
53397.0,STARLINK-4515,PAYLOAD,2024-01-31 20:13:34,15.08838383,0.0001727,53.2193,331.1251,98.9141,261.2046,1.2829e-05,-8.4e-07,0.0,0 STARLINK-4515,1 53397U 22097K   24031.84275918 -.00000084  00000-0  12829-4 0  9990,2 53397  53.2193 331.1251 0001727  98.9141 261.2046 15.08838383 82106,6917.885,95.438,540.945,538.556,0.0
53397.0,STARLINK-4515,PAYLOAD,2024-02-01 02:35:07,15.08836247,0.0001701,53.2194,329.9349,106.7012,253.4167,-9.5947e-06,-4.41e-06,0.0,0 STARLINK-4515,1 53397U 22097K   24032.10772052 -.00000441  00000-0 -95947-5 0  9992,2 53397  53.2194 329.9349 0001701 106.7012 253.4167 15.08836247 82639,6917.892,95.438,540.934,538.58,0.0
53397.0,STARLINK-4515,PAYLOAD,2024-02-01 20:04:21,15.08839494,0.0001602,53.2199,326.6642,107.6852,252.4315,4.8906e-05,4.9e-06,0.0,0 STARLINK-4515,1 53397U 22097K   24032.83635709  .00000490  00000-0  48906-4 0  9993,2 53397  53.2199 326.6642 0001602 107.6852 252.4315 15.08839494 82749,6917.882,95.438,540.855,538.639,0.0
53397.0,STARLINK-4515,PAYLOAD,2024-02-02 00:50:30,15.08839797,0.0001707,53.2201,325.7721,116.2309,243.8859,4.9421e-05,4.99e-06,0.0,0 STARLINK-4515,1 53397U 22097K   24033.03507651  .00000499  00000-0  49421-4 0  9992,2 53397  53.2201 325.7721 0001707 116.2309 243.8859 15.08839797 82282,6917.881,95.438,540.927,538.565,0.0
53397.0,STARLINK-4515,PAYLOAD,2024-02-02 19:55:08,15.08833852,0.0001422,53.2183,322.201,106.7228,253.3921,3.4638e-05,2.63e-06,0.0,0 STARLINK-4515,1 53397U 22097K   24033.82996309  .00000263  00000-0  34638-4 0  9994,2 53397  53.2183 322.2010 0001422 106.7228 253.3921 15.08833852 82408,6917.899,95.438,540.748,538.78,0.0
53397.0,STARLINK-4515,PAYLOAD,2024-02-03 03:52:04,15.08835621,0.0001375,53.2184,320.7139,103.6288,256.4857,4.0722e-05,3.6e-06,0.0,0 STARLINK-4515,1 53397U 22097K   24034.16116286  .00000360  00000-0  40722-4 0  9999,2 53397  53.2184 320.7139 0001375 103.6288 256.4857 15.08835621 82940,6917.894,95.438,540.71,538.808,0.0
53397.0,STARLINK-4515,PAYLOAD,2024-02-04 03:42:50,15.08845098,0.0001387,53.2183,316.2539,103.1947,256.92,9.8997e-05,1.288e-05,0.0,0 STARLINK-4515,1 53397U 22097K   24035.15475685  .00001288  00000-0  98997-4 0  9997,2 53397  53.2183 316.2539 0001387 103.1947 256.9200 15.08845098 82602,6917.865,95.437,540.689,538.77,0.0
53397.0,STARLINK-4515,PAYLOAD,2024-02-04 22:47:29,15.08838103,0.0001479,53.219,312.6855,98.4024,261.7136,5.9117e-05,6.53e-06,0.0,0 STARLINK-4515,1 53397U 22097K   24035.94964352  .00000653  00000-0  59117-4 0  9994,2 53397  53.2190 312.6855 0001479  98.4024 261.7136 15.08838103 83214,6917.886,95.438,540.774,538.728,0.0
53397.0,STARLINK-4515,PAYLOAD,2024-02-05 11:30:34,15.08839929,0.000127,53.2187,310.3033,97.3255,262.7881,3.9703e-05,3.44e-06,0.0,0 STARLINK-4515,1 53397U 22097K   24036.47956159  .00000344  00000-0  39703-4 0  9995,2 53397  53.2187 310.3033 0001270  97.3255 262.7881 15.08839929 82805,6917.881,95.438,540.624,538.867,0.0
53397.0,STARLINK-4515,PAYLOAD,2024-02-05 22:38:16,15.08844475,0.0001272,53.2183,308.2223,97.9436,262.17,-2.7002e-05,-7.18e-06,0.0,0 STARLINK-4515,1 53397U 22097K   24036.94324103 -.00000718  00000-0 -27002-4 0  9991,2 53397  53.2183 308.2223 0001272  97.9436 262.1700 15.08844475 83365,6917.867,95.437,540.612,538.852,0.0
53397.0,STARLINK-4515,PAYLOAD,2024-02-06 03:24:25,15.08849684,0.0001708,53.2194,307.3291,92.7658,267.353,4.2533e-05,3.89e-06,0.0,0 STARLINK-4515,1 53397U 22097K   24037.14195616  .00000389  00000-0  42533-4 0  9997,2 53397  53.2194 307.3291 0001708  92.7658 267.3530 15.08849684 82909,6917.851,95.437,540.897,538.534,0.0
53397.0,STARLINK-4515,PAYLOAD,2024-02-06 22:29:03,15.08843854,0.0001761,53.2182,303.7619,108.6328,251.4855,-3.4797e-05,-8.42e-06,0.0,0 STARLINK-4515,1 53397U 22097K   24037.93684061 -.00000842  00000-0 -34797-4 0  9990,2 53397  53.2182 303.7619 0001761 108.6328 251.4855 15.08843854 83515,6917.869,95.437,540.952,538.515,0.0
53397.0,STARLINK-4515,PAYLOAD,2024-02-07 03:15:12,15.0884636,0.0001494,53.2182,302.8682,94.7164,265.3999,-2.2283e-06,-3.23e-06,0.0,0 STARLINK-4515,1 53397U 22097K   24038.13555809 -.00000323  00000-0 -22283-5 0  9992,2 53397  53.2182 302.8682 0001494  94.7164 265.3999 15.08846360 83058,6917.861,95.437,540.759,538.692,0.0
53397.0,STARLINK-4515,PAYLOAD,2024-02-07 11:12:08,15.08840891,0.0001281,53.2181,301.3814,106.3926,253.7207,-4.0623e-05,-9.34e-06,0.0,0 STARLINK-4515,1 53397U 22097K   24038.46676129 -.00000934  00000-0 -40623-4 0  9992,2 53397  53.2181 301.3814 0001281 106.3926 253.7207 15.08840891 83593,6917.878,95.437,540.629,538.856,0.0
53397.0,STARLINK-4515,PAYLOAD,2024-02-07 22:19:50,15.08836656,0.0001692,53.2176,299.3006,113.7789,246.3381,-3.0931e-06,-3.37e-06,0.0,0 STARLINK-4515,1 53397U 22097K   24038.93044443 -.00000337  00000-0 -30931-5 0  9991,2 53397  53.2176 299.3006 0001692 113.7789 246.3381 15.08836656 83664,6917.891,95.438,540.926,538.585,0.0
53397.0,STARLINK-4515,PAYLOAD,2024-02-07 23:55:13,15.08841392,0.0001566,53.218,299.0055,112.4553,247.6605,-4.4993e-05,-1.004e-05,0.0,0 STARLINK-4515,1 53397U 22097K   24038.99668332 -.00001004  00000-0 -44993-4 0  9990,2 53397  53.2180 299.0055 0001566 112.4553 247.6605 15.08841392 83672,6917.876,95.437,540.824,538.658,0.0
53397.0,STARLINK-4515,PAYLOAD,2024-02-08 22:10:38,15.08839095,0.0001519,53.2189,294.845,97.9712,262.1452,-3.3421e-05,-8.2e-06,0.0,0 STARLINK-4515,1 53397U 22097K   24039.92405100 -.00000820  00000-0 -33421-4 0  9995,2 53397  53.2189 294.8450 0001519  97.9712 262.1452 15.08839095 83810,6917.883,95.438,540.799,538.697,0.0
53397.0,STARLINK-4515,PAYLOAD,2024-02-08 23:46:00,15.08842394,0.0001438,53.2176,294.5476,93.008,267.1077,-1.9963e-05,-6.06e-06,0.0,0 STARLINK-4515,1 53397U 22097K   24039.99028831 -.00000606  00000-0 -19963-4 0  9991,2 53397  53.2176 294.5476 0001438  93.0080 267.1077 15.08842394 83337,6917.873,95.437,540.733,538.743,0.0
53397.0,STARLINK-4515,PAYLOAD,2024-02-09 23:36:47,15.08841221,0.0001615,53.2177,290.0817,113.699,246.4172,6.5057e-05,7.48e-06,0.0,0 STARLINK-4515,1 53397U 22097K   24040.98388804  .00000748  00000-0  65057-4 0  9991,2 53397  53.2177 290.0817 0001615 113.6990 246.4172 15.08841221 83978,6917.877,95.437,540.859,538.624,0.0
53397.0,STARLINK-4515,PAYLOAD,2024-02-10 20:16:49,15.08840316,0.0001561,53.2177,286.2211,105.8947,254.2217,3.5002e-05,2.69e-06,0.0,0 STARLINK-4515,1 53397U 22097K   24041.84501305  .00000269  00000-0  35002-4 0  9995,2 53397  53.2177 286.2211 0001561 105.8947 254.2217 15.08840316 83610,6917.879,95.438,540.824,538.665,0.0
53397.0,STARLINK-4515,PAYLOAD,2024-02-10 21:52:12,15.08840129,0.0001558,53.2178,285.9238,106.0367,254.0796,3.1089e-05,2.07e-06,0.0,0 STARLINK-4515,1 53397U 22097K   24041.91125318  .00000207  00000-0  31089-4 0  9992,2 53397  53.2178 285.9238 0001558 106.0367 254.0796 15.08840129 84119,6917.88,95.438,540.823,538.667,0.0
